CCSDS_OMM_VERS = 2.0
CREATION_DATE  = 
ORIGINATOR     = 

OBJECT_NAME    = UNKNOWN
OBJECT_ID      = 
CENTER_NAME    = EARTH
REF_FRAME      = TEME
TIME_SYSTEM    = UTC
MEAN_ELEMENT_THEORY = SGP/SGP4

EPOCH          = 2025-12-18T07:57:45.259776
MEAN_MOTION    = 13.27815934
ECCENTRICITY   = .0076933
INCLINATION    = 101.7325
RA_OF_ASC_NODE = 208.5048
ARG_OF_PERICENTER = 354.8830
MEAN_ANOMALY   = 5.1491

EPHEMERIS_TYPE = 0
CLASSIFICATION_TYPE = U
NORAD_CAT_ID   = 87557
ELEMENT_SET_NO = 999
REV_AT_EPOCH   = 56577
BSTAR          = .99712E-2
MEAN_MOTION_DOT = .4529E-4
MEAN_MOTION_DDOT = 0

CCSDS_OMM_VERS = 2.0
CREATION_DATE  = 
ORIGINATOR     = 

OBJECT_NAME    = UNKNOWN
OBJECT_ID      = 
CENTER_NAME    = EARTH
REF_FRAME      = TEME
TIME_SYSTEM    = UTC
MEAN_ELEMENT_THEORY = SGP/SGP4

EPOCH          = 2025-12-17T02:09:43.852032
MEAN_MOTION    = 12.32155965
ECCENTRICITY   = .0174605
INCLINATION    = 102.0099
RA_OF_ASC_NODE = 48.5083
ARG_OF_PERICENTER = 284.9503
MEAN_ANOMALY   = 102.5687

EPHEMERIS_TYPE = 0
CLASSIFICATION_TYPE = U
NORAD_CAT_ID   = 87561
ELEMENT_SET_NO = 999
REV_AT_EPOCH   = 54297
BSTAR          = .53551E-3
MEAN_MOTION_DOT = .23E-6
MEAN_MOTION_DDOT = 0

CCSDS_OMM_VERS = 2.0
CREATION_DATE  = 
ORIGINATOR     = 

OBJECT_NAME    = UNKNOWN
OBJECT_ID      = 
CENTER_NAME    = EARTH
REF_FRAME      = TEME
TIME_SYSTEM    = UTC
MEAN_ELEMENT_THEORY = SGP/SGP4

EPOCH          = 2025-12-18T10:19:04.503936
MEAN_MOTION    = 14.06001916
ECCENTRICITY   = .0172048
INCLINATION    = 99.9460
RA_OF_ASC_NODE = 344.5957
ARG_OF_PERICENTER = 155.3759
MEAN_ANOMALY   = 205.5743

EPHEMERIS_TYPE = 0
CLASSIFICATION_TYPE = U
NORAD_CAT_ID   = 87565
ELEMENT_SET_NO = 999
REV_AT_EPOCH   = 61723
BSTAR          = .47323E-3
MEAN_MOTION_DOT = .835E-5
MEAN_MOTION_DDOT = 0

CCSDS_OMM_VERS = 2.0
CREATION_DATE  = 
ORIGINATOR     = 

OBJECT_NAME    = UNKNOWN
OBJECT_ID      = 
CENTER_NAME    = EARTH
REF_FRAME      = TEME
TIME_SYSTEM    = UTC
MEAN_ELEMENT_THEORY = SGP/SGP4

EPOCH          = 2025-12-16T06:53:17.170656
MEAN_MOTION    = 12.68540909
ECCENTRICITY   = .0055552
INCLINATION    = 101.9881
RA_OF_ASC_NODE = 167.7771
ARG_OF_PERICENTER = 246.3997
MEAN_ANOMALY   = 289.4862

EPHEMERIS_TYPE = 0
CLASSIFICATION_TYPE = U
NORAD_CAT_ID   = 87569
ELEMENT_SET_NO = 999
REV_AT_EPOCH   = 55891
BSTAR          = .10586E-3
MEAN_MOTION_DOT = -.28E-6
MEAN_MOTION_DDOT = 0

CCSDS_OMM_VERS = 2.0
CREATION_DATE  = 
ORIGINATOR     = 

OBJECT_NAME    = UNKNOWN
OBJECT_ID      = 
CENTER_NAME    = EARTH
REF_FRAME      = TEME
TIME_SYSTEM    = UTC
MEAN_ELEMENT_THEORY = SGP/SGP4

EPOCH          = 2025-12-15T00:20:18.932064
MEAN_MOTION    = 14.40061598
ECCENTRICITY   = .0018898
INCLINATION    = 74.0236
RA_OF_ASC_NODE = 98.6890
ARG_OF_PERICENTER = 139.1901
MEAN_ANOMALY   = 221.0673

EPHEMERIS_TYPE = 0
CLASSIFICATION_TYPE = U
NORAD_CAT_ID   = 87587
ELEMENT_SET_NO = 999
REV_AT_EPOCH   = 63413
BSTAR          = .89615E-4
MEAN_MOTION_DOT = .257E-5
MEAN_MOTION_DDOT = 0

CCSDS_OMM_VERS = 2.0
CREATION_DATE  = 
ORIGINATOR     = 

OBJECT_NAME    = UNKNOWN
OBJECT_ID      = 
CENTER_NAME    = EARTH
REF_FRAME      = TEME
TIME_SYSTEM    = UTC
MEAN_ELEMENT_THEORY = SGP/SGP4

EPOCH          = 2025-12-15T01:23:21.619104
MEAN_MOTION    = 14.10328826
ECCENTRICITY   = .002591
INCLINATION    = 98.7886
RA_OF_ASC_NODE = 26.1235
ARG_OF_PERICENTER = 276.3023
MEAN_ANOMALY   = 113.5151

EPHEMERIS_TYPE = 0
CLASSIFICATION_TYPE = U
NORAD_CAT_ID   = 87590
ELEMENT_SET_NO = 999
REV_AT_EPOCH   = 15457
BSTAR          = .39111E-3
MEAN_MOTION_DOT = .653E-5
MEAN_MOTION_DDOT = 0

CCSDS_OMM_VERS = 2.0
CREATION_DATE  = 
ORIGINATOR     = 

OBJECT_NAME    = UNKNOWN
OBJECT_ID      = 
CENTER_NAME    = EARTH
REF_FRAME      = TEME
TIME_SYSTEM    = UTC
MEAN_ELEMENT_THEORY = SGP/SGP4

EPOCH          = 2025-12-16T04:49:57.851328
MEAN_MOTION    = 12.46902986
ECCENTRICITY   = .0632245
INCLINATION    = 66.0338
RA_OF_ASC_NODE = 141.7528
ARG_OF_PERICENTER = 137.6038
MEAN_ANOMALY   = 32.4783

EPHEMERIS_TYPE = 0
CLASSIFICATION_TYPE = U
NORAD_CAT_ID   = 87616
ELEMENT_SET_NO = 999
REV_AT_EPOCH   = 53666
BSTAR          = .20211E-2
MEAN_MOTION_DOT = .55E-5
MEAN_MOTION_DDOT = 0

CCSDS_OMM_VERS = 2.0
CREATION_DATE  = 
ORIGINATOR     = 

OBJECT_NAME    = UNKNOWN
OBJECT_ID      = 
CENTER_NAME    = EARTH
REF_FRAME      = TEME
TIME_SYSTEM    = UTC
MEAN_ELEMENT_THEORY = SGP/SGP4

EPOCH          = 2025-12-18T15:19:43.021632
MEAN_MOTION    = 14.70085315
ECCENTRICITY   = .0096615
INCLINATION    = 98.6813
RA_OF_ASC_NODE = 290.4493
ARG_OF_PERICENTER = 229.6484
MEAN_ANOMALY   = 129.6253

EPHEMERIS_TYPE = 0
CLASSIFICATION_TYPE = U
NORAD_CAT_ID   = 87624
ELEMENT_SET_NO = 999
REV_AT_EPOCH   = 58114
BSTAR          = .60065E-3
MEAN_MOTION_DOT = .3817E-4
MEAN_MOTION_DDOT = 0

CCSDS_OMM_VERS = 2.0
CREATION_DATE  = 
ORIGINATOR     = 

OBJECT_NAME    = UNKNOWN
OBJECT_ID      = 
CENTER_NAME    = EARTH
REF_FRAME      = TEME
TIME_SYSTEM    = UTC
MEAN_ELEMENT_THEORY = SGP/SGP4

EPOCH          = 2025-12-16T05:38:58.280928
MEAN_MOTION    = 14.61732089
ECCENTRICITY   = .0032985
INCLINATION    = 100.2687
RA_OF_ASC_NODE = 166.3353
ARG_OF_PERICENTER = 271.7021
MEAN_ANOMALY   = 88.0395

EPHEMERIS_TYPE = 0
CLASSIFICATION_TYPE = U
NORAD_CAT_ID   = 87650
ELEMENT_SET_NO = 999
REV_AT_EPOCH   = 8027
BSTAR          = .18343E-2
MEAN_MOTION_DOT = .9157E-4
MEAN_MOTION_DDOT = 0

CCSDS_OMM_VERS = 2.0
CREATION_DATE  = 
ORIGINATOR     = 

OBJECT_NAME    = UNKNOWN
OBJECT_ID      = 
CENTER_NAME    = EARTH
REF_FRAME      = TEME
TIME_SYSTEM    = UTC
MEAN_ELEMENT_THEORY = SGP/SGP4

EPOCH          = 2025-12-16T18:30:47.524032
MEAN_MOTION    = 14.27850459
ECCENTRICITY   = .0064382
INCLINATION    = 70.8586
RA_OF_ASC_NODE = 357.9589
ARG_OF_PERICENTER = 267.7260
MEAN_ANOMALY   = 91.6496

EPHEMERIS_TYPE = 0
CLASSIFICATION_TYPE = U
NORAD_CAT_ID   = 87672
ELEMENT_SET_NO = 999
REV_AT_EPOCH   = 62503
BSTAR          = .68577E-3
MEAN_MOTION_DOT = .1685E-4
MEAN_MOTION_DDOT = 0

CCSDS_OMM_VERS = 2.0
CREATION_DATE  = 
ORIGINATOR     = 

OBJECT_NAME    = UNKNOWN
OBJECT_ID      = 
CENTER_NAME    = EARTH
REF_FRAME      = TEME
TIME_SYSTEM    = UTC
MEAN_ELEMENT_THEORY = SGP/SGP4

EPOCH          = 2025-12-10T23:07:30.426240
MEAN_MOTION    = 13.71111220
ECCENTRICITY   = .0155804
INCLINATION    = 66.7360
RA_OF_ASC_NODE = 102.8871
ARG_OF_PERICENTER = 163.7958
MEAN_ANOMALY   = 196.8175

EPHEMERIS_TYPE = 0
CLASSIFICATION_TYPE = U
NORAD_CAT_ID   = 87681
ELEMENT_SET_NO = 999
REV_AT_EPOCH   = 60159
BSTAR          = .2131E-2
MEAN_MOTION_DOT = .2007E-4
MEAN_MOTION_DDOT = 0

CCSDS_OMM_VERS = 2.0
CREATION_DATE  = 
ORIGINATOR     = 

OBJECT_NAME    = UNKNOWN
OBJECT_ID      = 
CENTER_NAME    = EARTH
REF_FRAME      = TEME
TIME_SYSTEM    = UTC
MEAN_ELEMENT_THEORY = SGP/SGP4

EPOCH          = 2025-12-16T06:41:57.197472
MEAN_MOTION    = 14.00421389
ECCENTRICITY   = .0578462
INCLINATION    = 65.7947
RA_OF_ASC_NODE = 344.8126
ARG_OF_PERICENTER = 45.6832
MEAN_ANOMALY   = 319.0190

EPHEMERIS_TYPE = 0
CLASSIFICATION_TYPE = U
NORAD_CAT_ID   = 87690
ELEMENT_SET_NO = 999
REV_AT_EPOCH   = 60787
BSTAR          = .59258E-3
MEAN_MOTION_DOT = .3831E-4
MEAN_MOTION_DDOT = 0

